NORAD_CAT_ID,OBJECT_NAME,OBJECT_TYPE,EPOCH,MEAN_MOTION,ECCENTRICITY,INCLINATION,RA_OF_ASC_NODE,ARG_OF_PERICENTER,MEAN_ANOMALY,BSTAR,MEAN_MOTION_DOT,MEAN_MOTION_DDOT,TLE_LINE0,TLE_LINE1,TLE_LINE2,SEMIMAJOR_AXIS,PERIOD,APOGEE,PERIGEE,DECAYED
52106.0,STARLINK-3670,PAYLOAD,2022-06-13 14:00:01,15.08832641,0.0001557,53.2178,97.3046,68.3957,332.7382,0.00096597,0.00015116,0.0,0 STARLINK-3670,1 52106U 22029U   22164.58334491  .00015116  00000-0  96597-3 0  9994,2 52106  53.2178  97.3046 0001557  68.3957 332.7382 15.08832641  1307,6917.903,95.438,540.845,538.691,0.0
52106.0,STARLINK-3670,PAYLOAD,2022-06-13 22:00:00,15.08879088,0.0001535,53.2181,95.8088,69.7531,342.9748,-0.0037315,-0.0005925,0.0,0 STARLINK-3670,1 52106U 22029U   22164.91667824 -.00059250  00000-0 -37315-2 0  9991,2 52106  53.2181  95.8088 0001535  69.7531 342.9748 15.08879088 14612,6917.761,95.435,540.688,538.564,0.0
52106.0,STARLINK-3670,PAYLOAD,2022-06-14 14:00:01,15.08826866,0.0001447,53.2179,92.8161,74.0245,1.8918,0.00024323,3.584e-05,0.0,0 STARLINK-3670,1 52106U 22029U   22165.58334491  .00003584  00000-0  24323-3 0  9999,2 52106  53.2179  92.8161 0001447  74.0245   1.8918 15.08826866 14718,6917.920999999999,95.438,540.7869999999998,538.785,0.0
52106.0,STARLINK-3670,PAYLOAD,2022-06-14 22:00:00,15.08851141,0.0001486,53.2179,91.3204,74.1727,13.3198,-0.0012134,-0.00019553,0.0,0 STARLINK-3670,1 52106U 22029U   22165.91667824 -.00019553  00000-0 -12134-2 0  9996,2 52106  53.2179  91.3204 0001486  74.1727  13.3198 15.08851141  1302,6917.846,95.437,540.739,538.683,0.0
52106.0,STARLINK-3670,PAYLOAD,2022-06-15 14:00:01,15.08822839,0.0001434,53.2175,88.3275,72.7524,37.9029,0.0021265,0.00033702,0.0,0 STARLINK-3670,1 52106U 22029U   22166.58334491  .00033702  00000-0  21265-2 0  9996,2 52106  53.2175  88.3275 0001434  72.7524  37.9029 15.08822839  1301,6917.933000000001,95.439,540.79,538.806,0.0
52106.0,STARLINK-3670,PAYLOAD,2022-06-15 22:00:00,15.08866978,0.0001512,53.2176,86.83200000000002,72.7757,49.4648,-0.00094086,-0.00015242,0.0,0 STARLINK-3670,1 52106U 22029U   22166.91667824 -.00015242  00000-0 -94086-3 0  9995,2 52106  53.2176  86.8320 0001512  72.7757  49.4648 15.08866978 14919,6917.7980000000025,95.436,540.7090000000002,538.617,0.0
52106.0,STARLINK-3670,PAYLOAD,2022-06-16 02:00:01,15.08858302,0.0001568,53.2174,86.0847,67.5382,240.5162,0.00024381,3.596e-05,0.0,0 STARLINK-3670,1 52106U 22029U   22167.08334491  .00003596  00000-0  24381-3 0  9993,2 52106  53.2174  86.0847 0001568  67.5382 240.5162 15.08858302  1306,6917.824000000001,95.436,540.774,538.605,0.0
52106.0,STARLINK-3670,PAYLOAD,2022-06-19 14:00:01,15.08805689,0.0001496999999999,53.2179,70.3708,71.5376,178.2757,0.0027344,0.00043458,0.0,0 STARLINK-3670,1 52106U 22029U   22170.58334491  .00043458  00000-0  27344-2 0  9994,2 52106  53.2179  70.3708 0001497  71.5376 178.2757 15.08805689  1309,6917.985,95.44,540.886,538.815,0.0
52106.0,STARLINK-3670,PAYLOAD,2022-06-19 22:00:00,15.08843748,0.0001599,53.2181,68.8756,68.9759,192.4086,-0.00068737,-0.00011212,0.0,0 STARLINK-3670,1 52106U 22029U   22170.91667824 -.00011212  00000-0 -68737-3 0  9997,2 52106  53.2181  68.8756 0001599  68.9759 192.4086 15.08843748  1306,6917.869000000002,95.437,540.84,538.628,0.0
52106.0,STARLINK-3670,PAYLOAD,2022-06-20 06:00:00,15.08851121,0.0001576999999999,53.2177,67.3796,64.3201,208.6518,-0.00072626,-0.00011831,0.0,0 STARLINK-3670,1 52106U 22029U   22171.25001157 -.00011831  00000-0 -72626-3 0  9995,2 52106  53.2177  67.3796 0001577  64.3201 208.6518 15.08851121 15564,6917.846,95.437,540.802,538.62,0.0
52106.0,STARLINK-3670,PAYLOAD,2022-06-20 14:00:01,15.08806992,0.000143,53.2181,65.8815,72.7889,211.7969,0.0024797,0.00039361,0.0,0 STARLINK-3670,1 52106U 22029U   22171.58334491  .00039361  00000-0  24797-2 0  9992,2 52106  53.2181  65.8815 0001430  72.7889 211.7969 15.08806992  1305,6917.981,95.44,540.836,538.857,0.0
52106.0,STARLINK-3670,PAYLOAD,2022-06-20 22:00:00,15.08842132,0.000149,53.2182,64.3865,68.4708,227.6886,-0.00075532,-0.00012289,0.0,0 STARLINK-3670,1 52106U 22029U   22171.91667824 -.00012289  00000-0 -75532-3 0  9994,2 52106  53.2182  64.3865 0001490  68.4708 227.6886 15.08842132  1303,6917.874,95.437,540.77,538.7080000000002,0.0
52106.0,STARLINK-3670,PAYLOAD,2022-06-21 14:00:01,15.08805076,0.0001503,53.218,61.3924,76.2535,243.11,0.0031494,0.00050143,0.0,0 STARLINK-3670,1 52106U 22029U   22172.58334491  .00050143  00000-0  31494-2 0  9996,2 52106  53.2180  61.3924 0001503  76.2535 243.1100 15.08805076 15767,6917.986999999999,95.44,540.8919999999998,538.812,0.0
52106.0,STARLINK-3670,PAYLOAD,2022-06-21 22:00:00,15.08843036,0.0001581,53.2181,59.8977,71.3061,259.6294,-0.0010024,-0.00016207,0.0,0 STARLINK-3670,1 52106U 22029U   22172.91667824 -.00016207  00000-0 -10024-2 0  9993,2 52106  53.2181  59.8977 0001581  71.3061 259.6294 15.08843036  1303,6917.871,95.437,540.83,538.6419999999998,0.0
52106.0,STARLINK-3670,PAYLOAD,2022-06-22 06:00:00,15.08852847,0.0001509,53.2176,58.4013,67.508,275.0163,-0.0029633,-0.00047157,0.0,0 STARLINK-3670,1 52106U 22029U   22173.25001157 -.00047157  00000-0 -29633-2 0  9996,2 52106  53.2176  58.4013 0001509  67.5080 275.0163 15.08852847 15864,6917.840999999999,95.437,540.75,538.6619999999998,0.0
52106.0,STARLINK-3670,PAYLOAD,2022-06-22 14:00:01,15.08800503,0.0001412,53.2178,56.9036,77.8491,276.2728,0.0035383,0.00056414,0.0,0 STARLINK-3670,1 52106U 22029U   22173.58334491  .00056414  00000-0  35383-2 0  9995,2 52106  53.2178  56.9036 0001412  77.8491 276.2728 15.08800503  1303,6918.001,95.44,540.8430000000002,538.889,0.0
52106.0,STARLINK-3670,PAYLOAD,2022-06-22 22:00:00,15.08840907,0.0001506,53.2179,55.409,71.5005,294.1925,-0.00070106,-0.00011428,0.0,0 STARLINK-3670,1 52106U 22029U   22173.91667824 -.00011428  00000-0 -70106-3 0  9992,2 52106  53.2179  55.4090 0001506  71.5005 294.1925 15.08840907 15972,6917.878000000002,95.437,540.784,538.701,0.0
52106.0,STARLINK-3670,PAYLOAD,2022-06-23 14:00:01,15.088606400000002,0.0001481,53.2174,52.4178,78.3177,310.564,-0.0045631,-0.00072223,0.0,0 STARLINK-3670,1 52106U 22029U   22174.58334491 -.00072223  00000-0 -45631-2 0  9991,2 52106  53.2174  52.4178 0001481  78.3177 310.5640 15.08860640  1303,6917.816999999999,95.436,540.707,538.658,0.0
52106.0,STARLINK-3670,PAYLOAD,2022-06-23 22:00:00,15.08839821,0.0001673,53.2177,50.9202,73.2819,327.2054,-0.0012163,-0.00019593,0.0,0 STARLINK-3670,1 52106U 22029U   22174.91667824 -.00019593  00000-0 -12163-2 0  9992,2 52106  53.2177  50.9202 0001673  73.2819 327.2054 15.08839821 16124,6917.880999999999,95.438,540.903,538.589,0.0
52106.0,STARLINK-3670,PAYLOAD,2022-06-24 14:00:01,15.08835362,0.0001575999999999,53.2177,47.9258,78.8665,344.7992,0.00024486,3.611e-05,0.0,0 STARLINK-3670,1 52106U 22029U   22175.58334491  .00003611  00000-0  24486-3 0  9991,2 52106  53.2177  47.9258 0001576  78.8665 344.7992 15.08835362 16225,6917.895,95.438,540.85,538.669,0.0
52106.0,STARLINK-3670,PAYLOAD,2022-06-24 22:00:01,15.08825574,0.000162,53.2178,46.4313,71.5691,3.7524,-0.00066462,-0.00010846,0.0,0 STARLINK-3670,1 52106U 22029U   22175.91668981 -.00010846  00000-0 -66462-3 0  9992,2 52106  53.2178  46.4313 0001620  71.5691   3.7524 15.08825574  1301,6917.924,95.438,540.91,538.669,0.0
52106.0,STARLINK-3670,PAYLOAD,2022-06-25 14:00:01,15.08820541,0.000157,53.2181,43.437,78.0004,20.4143,0.0025218,0.00040053,0.0,0 STARLINK-3670,1 52106U 22029U   22176.58334491  .00040053  00000-0  25218-2 0  9996,2 52106  53.2181  43.4370 0001570  78.0004  20.4143 15.08820541 16374,6917.94,95.439,540.891,538.719,0.0
52106.0,STARLINK-3670,PAYLOAD,2022-06-25 22:00:00,15.08847219,0.0001656,53.2182,41.9426,70.785,39.2236,-0.00017199,-3.025e-05,0.0,0 STARLINK-3670,1 52106U 22029U   22176.91667824 -.00003025  00000-0 -17199-3 0  9992,2 52106  53.2182  41.9426 0001656  70.7850  39.2236 15.08847219  1302,6917.858,95.437,540.869,538.578,0.0
52106.0,STARLINK-3670,PAYLOAD,2022-06-26 06:00:00,15.08880084,0.0001561999999999,53.2182,40.4457,69.5351,52.0689,-0.0041363,-0.0006559,0.0,0 STARLINK-3670,1 52106U 22029U   22177.25001157 -.00065590  00000-0 -41363-2 0  9995,2 52106  53.2182  40.4457 0001562  69.5351  52.0689 15.08880084 16474,6917.7580000000025,95.435,540.703,538.5419999999998,0.0
52106.0,STARLINK-3670,PAYLOAD,2022-06-26 14:00:01,15.08829554,0.0001477,53.2186,38.948,77.2916,56.0008,0.0024415,0.00038771,0.0,0 STARLINK-3670,1 52106U 22029U   22177.58335648  .00038771  00000-0  24415-2 0  9994,2 52106  53.2186  38.9480 0001477  77.2916  56.0008 15.08829554 16524,6917.9119999999975,95.438,540.799,538.756,0.0
52106.0,STARLINK-3670,PAYLOAD,2022-06-26 22:00:00,15.08845994,0.0001553,53.2185,37.4536,68.8467,75.9782,0.00010072,1.316e-05,0.0,0 STARLINK-3670,1 52106U 22029U   22177.91667824  .00001316  00000-0  10072-3 0  9995,2 52106  53.2185  37.4536 0001553  68.8467  75.9782 15.08845994  1306,6917.861999999999,95.437,540.8009999999998,538.653,0.0
52106.0,STARLINK-3670,PAYLOAD,2022-06-27 06:00:00,15.0887266,0.0001408,53.2184,35.9565,68.5655,87.8573,-0.0047785,-0.00075607,0.0,0 STARLINK-3670,1 52106U 22029U   22178.25001157 -.00075607  00000-0 -47785-2 0  9990,2 52106  53.2184  35.9565 0001408  68.5655  87.8573 15.08872660 16626,6917.781,95.435,540.62,538.672,0.0
52106.0,STARLINK-3670,PAYLOAD,2022-06-27 14:00:01,15.08812701,0.0001288,53.2188,34.4592,76.288,91.7367,0.00065882,0.00010205,0.0,0 STARLINK-3670,1 52106U 22029U   22178.58334491  .00010205  00000-0  65882-3 0  9996,2 52106  53.2188  34.4592 0001288  76.2880  91.7367 15.08812701  1300,6917.964,95.439,540.72,538.938,0.0
52106.0,STARLINK-3670,PAYLOAD,2022-06-27 22:00:00,15.08808864,0.0001355,53.2186,32.9647,65.8018,113.79,0.00043802,6.684e-05,0.0,0 STARLINK-3670,1 52106U 22029U   22178.91667824  .00006684  00000-0  43802-3 0  9996,2 52106  53.2186  32.9647 0001355  65.8018 113.7900 15.08808864 16729,6917.976,95.44,540.778,538.903,0.0
